{
  "norad_id": 68709,
  "name": "STARLINK-37303",
  "history": [
    {
      "epoch": "2026-04-23T12:31:10.777728Z",
      "apogee_km": 318.5063504498803,
      "perigee_km": 315.15458193760605,
      "latitude_deg": 3.3916649793605816e-05,
      "longitude_deg": 156.82073253913137,
      "height_km": 316.07874206630555,
      "semi_major_axis_km": 6694.967466193743,
      "eccentricity": 0.00025032,
      "inclination_deg": 53.1598,
      "raan_deg": 196.1833,
      "arg_perigee_deg": 356.5258,
      "mean_anomaly_deg": 3.5749,
      "mean_motion_rev_day": 15.8482041
    }
  ]
}